#dP2022  5 22  6  0  0.00000000      96 __u+U ITR00 EXT  IAC
## 2211  21600.00000000   900.00000000 59721 0.2500000000000
+  117   C06C07C08C09C10C11C12C13C14C16C19C20C21C22C23C24C25
+        C26C27C28C29C30C32C33C34C35C36C37C38C39C40C41C42C43
+        C44C45C46E01E02E03E04E05E07E08E09E10E11E12E13E14E15
+        E18E19E21E24E25E26E27E30E31E33E34E36G01G02G03G04G05
+        G06G07G08G09G10G11G12G13G14G15G16G17G18G19G20G21G22
+        G23G24G25G26G27G28G29G30G31G32J02J03R01R02R03R04R05
+        R07R08R09R11R12R13R14R15R17R18R19R20R21R22R24  0  0
++         0  0  0  0  0  0  0  0  0  0  0  0  0  0  0  0  0
++         0  0  0  0  0  0  0  0  0  0  0  0  0  0  0  0  0
++         0  0  0 12 13 12 11 10 11 10 11 13 14 15 14 18 14
++        15 11 12 10  9 15 11 11 13 14 15 14  9 12  8  8 13
++         8 12  8  8  9  8 13  9  9  9 13 15 10 16 13 14  8
++         9  8  8  8  8 12 15  8 13  9  0  0  8  9 10  9  9
++        10  9 11  8 10 10 11 10 10  9 13 12 11 11 12  0  0
%c M  cc GPS ccc cccc cccc cccc cccc ccccc ccccc ccccc ccccc
%c cc cc ccc ccc cccc cccc cccc cccc ccccc ccccc ccccc ccccc
%f  0.0000000  0.000000000  0.00000000000  0.000000000000000
%f  0.0000000  0.000000000  0.00000000000  0.000000000000000
%i    0    0    0    0      0      0      0      0         0
%i    0    0    0    0      0      0      0      0         0
/* IAC                                ULTRA-RAPID PREDICTION
/* S/V CLOCKS ARE ALIGNED TO GNSS TIME                      
/* G:C1WC2W R:C1PC2P E:C1XC5X C:C2IC6I J:C1CC2S             
/* PCV:IGS14_2196 OL/AL:FES2004  NONE     YN ORB:CoN CLK:CoN
*  2022 05 22 15 45  0.00000000
PC06      0.000000      0.000000      0.000000     35.824752
PC07      0.000000      0.000000      0.000000   -199.844961
PC08      0.000000      0.000000      0.000000    325.870072
PC09      0.000000      0.000000      0.000000   -811.598616
PC10      0.000000      0.000000      0.000000    130.926981
PC11      0.000000      0.000000      0.000000    368.004317
PC12      0.000000      0.000000      0.000000   -612.061981
PC13      0.000000      0.000000      0.000000    -25.469982
PC14      0.000000      0.000000      0.000000    480.999961
PC16      0.000000      0.000000      0.000000    133.732007
PC19      0.000000      0.000000      0.000000    867.370506
PC20      0.000000      0.000000      0.000000   -925.632841
PC21      0.000000      0.000000      0.000000   -339.139147
PC22      0.000000      0.000000      0.000000   -968.538251
PC23      0.000000      0.000000      0.000000   -930.477272
PC24      0.000000      0.000000      0.000000   -967.838483
PC25      0.000000      0.000000      0.000000   -732.933885
PC26      0.000000      0.000000      0.000000    734.220889
PC27      0.000000      0.000000      0.000000    727.190325
PC28      0.000000      0.000000      0.000000     69.739621
PC29      0.000000      0.000000      0.000000    558.131332
PC30      0.000000      0.000000      0.000000    498.858979
PC32      0.000000      0.000000      0.000000   -964.056188
PC33      0.000000      0.000000      0.000000   -966.225777
PC34      0.000000      0.000000      0.000000   -397.812154
PC35      0.000000      0.000000      0.000000    285.814430
PC36      0.000000      0.000000      0.000000   -964.823924
PC37      0.000000      0.000000      0.000000   -909.802424
PC38      0.000000      0.000000      0.000000    233.956452
PC39      0.000000      0.000000      0.000000     34.979556
PC40      0.000000      0.000000      0.000000    271.178792
PC41      0.000000      0.000000      0.000000   -966.451295
PC42      0.000000      0.000000      0.000000   -969.567730
PC43      0.000000      0.000000      0.000000   -922.612531
PC44      0.000000      0.000000      0.000000    667.901453
PC45      0.000000      0.000000      0.000000    763.713931
PC46      0.000000      0.000000      0.000000   -338.332188
PE01 -20969.157389  19713.233669  -6910.119484   -481.496118
PE02  20872.834613 -19774.193039   7062.686128    300.814948
PE03  12580.624743 -12493.378076 -23695.919268   -560.920525
PE04   8173.963484  19912.737389  20330.316213  -1033.513437
PE05  26380.558831   2438.213888 -13190.059047   -179.231572
PE07 -24634.531987 -15703.018298  -4794.583152   -671.042267
PE08  -8596.050312 -19798.423800 -20253.982128   -533.505153
PE09  24723.038210  15556.492879   4747.275951   -527.150995
PE10   8776.209159  26337.066742  10260.922841   -514.681623
PE11  13525.653207  18661.823226  18569.417257   3591.886099
PE12   2774.773535  29471.452022    797.366570   4600.984970
PE13 -13274.710241 -19236.909318 -18159.023531    428.839726
PE14 -11545.902939 -21060.996110  12380.013974  -1830.092202
PE15  -2759.190423 -29458.890237   -656.995904    744.095159
PE18   -847.366208  21227.837366 -21054.332766  -1418.770083
PE19 -14894.588225  10760.084415  23219.363217  -5097.307593
PE21 -26143.321324   8908.916723  10642.367530   -735.689787
PE24  15749.576840   8776.840626 -23492.934278   -629.024479
PE25  26118.519337  -8698.291435 -10878.936077   -574.856471
PE26 -15972.322795   3282.091506 -24706.549843  -1174.437559
PE27 -16698.194421  -7751.162017  23178.479565   -304.662564
PE30   3562.390166 -20041.386364  21484.502938   -531.162117
PE31  -2481.143170  19689.961371 -21955.202388   -497.037670
PE33  -9328.753923  22265.020566 -17140.572962   -456.382626
PE34   9179.573528 -22430.425775  16983.737381   -518.342227
PE36  15914.631880  -2177.354982  24858.722545   -377.300538
PG01  13015.128132 -13231.877573  18555.948229    357.412455
PG02 -13867.357065 -10158.032615 -19554.934023   -653.179752
PG03  23066.683316 -12985.031256  -1285.491036   -253.338502
PG04  17319.268537  -4712.265948 -19594.581903   -164.788902
PG05 -23120.321674   2735.214318 -13087.633100    -82.774651
PG06  -6175.011972 -23266.633377 -11073.520160    313.338033
PG07   5595.372359 -24854.647836  -6118.100337    322.197709
PG08  22680.439670   2523.911124  13842.846691    -69.043817
PG09   7476.513976 -13463.845497 -21702.276321   -334.735045
PG10    278.741226  16121.153554  21196.842623   -424.452606
PG11 -13005.862737 -11310.341069 -20215.627660    -21.946626
PG12 -24790.591150   8971.629969   2364.400779   -219.415941
PG13 -22415.731612 -12205.401844   7514.568025    316.197422
PG14   1628.273321 -16845.000900  20446.686423   -109.350005
PG15 -22682.383348    579.528053  13641.437020    -59.233828
PG16  21036.573171   3507.854502 -16388.381628   -503.035885
PG17  -8804.739470 -19665.410171  15925.573705    615.777346
PG18  -6485.629206  24679.351066  -7173.695690    163.219430
PG19 -15487.084372 -19813.033861   8612.365869    160.693945
PG20 -16746.882629  -5474.333474 -19803.831309    514.367655
PG21  15436.259564  -1879.563537  22144.814290    161.178596
PG22  17180.483291  19263.458107   7062.933350    263.313238
PG23 -11134.649573  18394.522498  15514.559785    -23.516489
PG24 -14417.552165   9177.295612  19933.348183    236.342280
PG25 -17209.901770  17351.982539 -10343.600376    327.946946
PG26  12502.603410  10545.632149 -21056.850998    207.364117
PG27  23418.438872  12626.417173   2797.649413    206.721627
PG28  -7428.965887 -13435.402902  22175.172058    353.237731
PG29  -8404.710645  12196.006937 -22099.190523   -516.311558
PG30   -572.830582 -26261.293333   2946.109931   -528.839664
PG31   7968.638413  21404.732449 -13284.513050   -178.679366
PG32  12180.872757  19234.021545  13980.367518   -133.042146
PJ02      0.000000      0.000000      0.000000     -0.223304
PJ03      0.000000      0.000000      0.000000     -2.326751
PR01  21467.363813  -4249.390760 -13085.650064      8.990879
PR02   3629.581232 -10430.673043 -22948.213617    519.123818
PR03 -15052.059784 -10294.382444 -17760.901065     57.099933
PR04 -24959.547231  -4427.578611  -2778.574838    142.754841
PR05 -21145.033655   3785.474717  13756.201076     93.311595
PR07  15735.744736  10200.443507  17358.508331     35.424386
PR08  24996.770437   4364.600161   2784.589937    -65.267431
PR09  -9901.054930  21649.610107  -9248.219272     56.422823
PR11  13576.566082  -1381.298061 -21536.535050     38.350242
PR12  17348.388893 -16706.859538  -8400.381085     18.570893
PR13  10842.661252 -21615.284725   8100.260954    -22.653155
PR14  -2847.253030 -13612.274998  21390.691442     25.592039
PR15 -14109.767816   1970.539284  21178.933340     95.954223
PR17 -11176.116486 -22718.973324  -3249.579553    528.295381
PR18 -13618.556872 -11859.664232 -17981.326617    117.724026
PR19  -9638.915070   3760.278476 -23322.183662   -189.926895
PR20   1147.615487  21032.751382 -14419.706300    -71.064959
PR21  11549.068344  22225.588798   4761.741740   -303.320109
PR22  13480.218147  11317.539881  18487.073955   -184.764636
PR24  -1799.182395 -21422.052731  13748.775547     94.987560
EOF
